NORAD_CAT_ID,OBJECT_NAME,OBJECT_TYPE,EPOCH,MEAN_MOTION,ECCENTRICITY,INCLINATION,RA_OF_ASC_NODE,ARG_OF_PERICENTER,MEAN_ANOMALY,BSTAR,MEAN_MOTION_DOT,MEAN_MOTION_DDOT,TLE_LINE0,TLE_LINE1,TLE_LINE2,SEMIMAJOR_AXIS,PERIOD,APOGEE,PERIGEE,DECAYED
53393.0,STARLINK-4530,PAYLOAD,2023-08-20 12:17:32,15.08836413,0.0001091,53.2214,348.8289,93.0478,267.0639,0.00012806,1.751e-05,0.0,0 STARLINK-4530,1 53393U 22097F   23232.51218093  .00001751  00000-0  12806-3 0  9998,2 53393  53.2214 348.8289 0001091  93.0478 267.0639 15.08836413 57291,6917.891,95.438,540.511,539.002,0.0
53393.0,STARLINK-4530,PAYLOAD,2023-08-21 13:43:42,15.08839501,9.94e-05,53.2197,344.0708,68.9804,291.1294,7.285e-05,8.72e-06,0.0,0 STARLINK-4530,1 53393U 22097F   23233.57202253  .00000872  00000-0  72850-4 0  9995,2 53393  53.2197 344.0708 0000994  68.9804 291.1294 15.08839501 57454,6917.882,95.438,540.435,539.059,0.0
53393.0,STARLINK-4530,PAYLOAD,2023-08-22 11:59:07,15.08834419,9.33e-05,53.2196,339.9083,62.9753,297.1334,8.1613e-05,1.011e-05,0.0,0 STARLINK-4530,1 53393U 22097F   23234.49938661  .00001011  00000-0  81613-4 0  9999,2 53393  53.2196 339.9083 0000933  62.9753 297.1334 15.08834419 57591,6917.897,95.438,540.408,539.117,0.0
53393.0,STARLINK-4530,PAYLOAD,2023-08-23 11:49:53,15.08843898,0.0001153,53.219,335.4479,73.8129,286.299,0.00012664,1.728e-05,0.0,0 STARLINK-4530,1 53393U 22097F   23235.49297984  .00001728  00000-0  12664-3 0  9990,2 53393  53.2190 335.4479 0001153  73.8129 286.2990 15.08843898 57743,6917.868,95.437,540.531,538.936,0.0
53393.0,STARLINK-4530,PAYLOAD,2023-08-24 11:40:40,15.08839168,0.0001193,53.2197,330.9863,106.4559,253.6564,5.9977e-05,6.67e-06,0.0,0 STARLINK-4530,1 53393U 22097F   23236.48658361  .00000667  00000-0  59977-4 0  9990,2 53393  53.2197 330.9863 0001193 106.4559 253.6564 15.08839168 58540,6917.883,95.438,540.573,538.923,0.0
53393.0,STARLINK-4530,PAYLOAD,2023-08-25 11:31:27,15.08842445,0.0001223,53.2194,326.5274,99.035,261.0781,6.6009e-06,-1.83e-06,0.0,0 STARLINK-4530,1 53393U 22097F   23237.48018346 -.00000183  00000-0  66009-5 0  9993,2 53393  53.2194 326.5274 0001223  99.0350 261.0781 15.08842445 58696,6917.873,95.437,540.584,538.892,0.0
53393.0,STARLINK-4530,PAYLOAD,2023-08-25 17:52:59,15.08857596,0.0001168,53.2184,325.3361,103.1407,256.9715,-8.5756e-05,-1.653e-05,0.0,0 STARLINK-4530,1 53393U 22097F   23237.74513403 -.00001653  00000-0 -85756-4 0  9999,2 53393  53.2184 325.3361 0001168 103.1407 256.9715 15.08857596 58083,6917.827,95.436,540.5,538.884,0.0
53393.0,STARLINK-4530,PAYLOAD,2023-08-26 09:46:52,15.08833628,0.0001395,53.218,322.3611,115.8424,244.2713,-1.3757e-05,-5.07e-06,0.0,0 STARLINK-4530,1 53393U 22097F   23238.40755007 -.00000507  00000-0 -13757-4 0  9990,2 53393  53.2180 322.3611 0001395 115.8424 244.2713 15.08833628 58184,6917.9,95.438,540.73,538.8,0.0
53393.0,STARLINK-4530,PAYLOAD,2023-08-26 11:22:15,15.08833027,0.0001214,53.2181,322.0665,81.0643,279.0487,3.5529e-05,2.78e-06,0.0,0 STARLINK-4530,1 53393U 22097F   23238.47379056  .00000278  00000-0  35529-4 0  9997,2 53393  53.2181 322.0665 0001214  81.0643 279.0487 15.08833027 58848,6917.902,95.438,540.607,538.927,0.0
53393.0,STARLINK-4530,PAYLOAD,2023-08-27 09:37:38,15.08841652,0.0001271,53.2174,317.9003,105.6632,254.45,6.9707e-05,8.22e-06,0.0,0 STARLINK-4530,1 53393U 22097F   23239.40114456  .00000822  00000-0  69707-4 0  9992,2 53393  53.2174 317.9003 0001271 105.6632 254.4500 15.08841652 58333,6917.875,95.437,540.62,538.861,0.0
53393.0,STARLINK-4530,PAYLOAD,2023-08-27 12:48:25,15.08843971,0.0001251,53.2177,317.3074,101.4413,258.672,6.03e-05,6.72e-06,0.0,0 STARLINK-4530,1 53393U 22097F   23239.53362410  .00000672  00000-0  60300-4 0  9994,2 53393  53.2177 317.3074 0001251 101.4413 258.6720 15.08843971 59008,6917.868,95.437,540.599,538.868,0.0
53393.0,STARLINK-4530,PAYLOAD,2023-08-28 11:03:49,15.08837518,0.0001258,53.2179,313.1452,77.1258,282.9874,2.4813e-05,1.07e-06,0.0,0 STARLINK-4530,1 53393U 22097F   23240.46099178  .00000107  00000-0  24813-4 0  9998,2 53393  53.2179 313.1452 0001258  77.1258 282.9874 15.08837518 58499,6917.888,95.438,540.623,538.883,0.0
53393.0,STARLINK-4530,PAYLOAD,2023-08-28 14:14:35,15.08843899,0.0001296,53.218,312.5501,83.2308,276.8831,7.7753e-05,9.5e-06,0.0,0 STARLINK-4530,1 53393U 22097F   23240.59346578  .00000950  00000-0  77753-4 0  9998,2 53393  53.2180 312.5501 0001296  83.2308 276.8831 15.08843899 58512,6917.868,95.437,540.63,538.837,0.0
53393.0,STARLINK-4530,PAYLOAD,2023-08-29 15:40:45,15.08849794,0.0001161,53.2178,307.7916,93.3674,266.7451,0.00011911,1.609e-05,0.0,0 STARLINK-4530,1 53393U 22097F   23241.65329896  .00001609  00000-0  11911-3 0  9995,2 53393  53.2178 307.7916 0001161  93.3674 266.7451 15.08849794 58677,6917.85,95.437,540.519,538.912,0.0
53393.0,STARLINK-4530,PAYLOAD,2023-08-29 22:02:18,15.08837485,0.000121,53.2181,306.6034,82.8273,277.2857,3.4246e-05,2.57e-06,0.0,0 STARLINK-4530,1 53393U 22097F   23241.91826897  .00000257  00000-0  34246-4 0  9992,2 53393  53.2181 306.6034 0001210  82.8273 277.2857 15.08837485 58719,6917.888,95.438,540.59,538.916,0.0
53393.0,STARLINK-4530,PAYLOAD,2023-08-30 15:31:32,15.08843518,0.0001403,53.2186,303.3288,102.5121,257.6028,2.5916e-05,1.25e-06,0.0,0 STARLINK-4530,1 53393U 22097F   23242.64690579  .00000125  00000-0  25916-4 0  9997,2 53393  53.2186 303.3288 0001403 102.5121 257.6028 15.08843518 59475,6917.87,95.437,540.705,538.764,0.0
53393.0,STARLINK-4530,PAYLOAD,2023-08-30 23:28:28,15.08841917,0.0001222,53.2178,301.8438,102.967,257.1458,-3.7075e-06,-3.47e-06,0.0,0 STARLINK-4530,1 53393U 22097F   23242.97810654 -.00000347  00000-0 -37075-5 0  9999,2 53393  53.2178 301.8438 0001222 102.9670 257.1458 15.08841917 58874,6917.875,95.437,540.585,538.894,0.0
53393.0,STARLINK-4530,PAYLOAD,2023-09-01 10:26:58,15.08805271,7.67e-05,53.2178,295.3031,110.7044,249.403,0.00055502,8.548e-05,0.0,0 STARLINK-4530,1 53393U 22097F   23244.43539994  .00008548  00000-0  55502-3 0  9999,2 53393  53.2178 295.3031 0000767 110.7044 249.4030 15.08805271 59093,6917.987,95.44,540.382,539.321,0.0
53393.0,STARLINK-4530,PAYLOAD,2023-09-01 13:37:43,15.08841896,0.000131,53.2173,294.7077,92.911,267.2032,5.251e-05,5.48e-06,0.0,0 STARLINK-4530,1 53393U 22097F   23244.56786703  .00000548  00000-0  52510-4 0  9994,2 53393  53.2173 294.7077 0001310  92.9110 267.2032 15.08841896 59768,6917.875,95.437,540.646,538.833,0.0
53393.0,STARLINK-4530,PAYLOAD,2023-09-01 19:59:16,15.08837804,0.0001401,53.2166,293.518,93.0631,267.0522,3.2551e-05,2.3e-06,0.0,0 STARLINK-4530,1 53393U 22097F   23244.83283002  .00000230  00000-0  32551-4 0  9999,2 53393  53.2166 293.5180 0001401  93.0631 267.0522 15.08837804 59152,6917.887,95.438,540.721,538.783,0.0
53393.0,STARLINK-4530,PAYLOAD,2023-09-02 11:53:07,15.08842586,0.0001456,53.2176,290.5453,90.6469,269.469,4.8988e-05,4.92e-06,0.0,0 STARLINK-4530,1 53393U 22097F   23245.49522903  .00000492  00000-0  48988-4 0  9999,2 53393  53.2176 290.5453 0001456  90.6469 269.4690 15.08842586 59903,6917.872,95.437,540.745,538.73,0.0
53393.0,STARLINK-4530,PAYLOAD,2023-09-02 19:50:02,15.08729086,0.0002018,53.2174,289.0582,75.7387,284.383,0.0013219,0.00020749,0.0,0 STARLINK-4530,1 53393U 22097F   23245.82641412  .00020749  00000-0  13219-2 0  9997,2 53393  53.2174 289.0582 0002018  75.7387 284.3830 15.08729086 59951,6918.219,95.445,541.481,538.688,0.0
53393.0,STARLINK-4530,PAYLOAD,2023-09-03 08:33:08,15.08841331,0.0001531,53.2175,286.679,91.9169,268.1998,6.54e-05,7.53e-06,0.0,0 STARLINK-4530,1 53393U 22097F   23246.35634889  .00000753  00000-0  65400-4 0  9990,2 53393  53.2175 286.6790 0001531  91.9169 268.1998 15.08841331 60037,6917.876,95.437,540.8,538.682,0.0
53393.0,STARLINK-4530,PAYLOAD,2023-09-03 14:54:40,15.08837838,0.0001623,53.217,285.4898,88.5689,271.5489,0.00021404,3.12e-05,0.0,0 STARLINK-4530,1 53393U 22097F   23246.62130675  .00003120  00000-0  21404-3 0  9990,2 53393  53.2170 285.4898 0001623  88.5689 271.5489 15.08837838 59420,6917.887,95.438,540.875,538.629,0.0
53393.0,STARLINK-4530,PAYLOAD,2023-09-04 11:34:43,15.0882935,0.0001992,53.217,281.624,77.8642,282.2573,-4.1185e-05,-9.43e-06,0.0,0 STARLINK-4530,1 53393U 22097F   23247.48244560 -.00000943  00000-0 -41185-4 0  9995,2 53393  53.2170 281.6240 0001992  77.8642 282.2573 15.08829350 60209,6917.913,95.438,541.156,538.4,0.0
53393.0,STARLINK-4530,PAYLOAD,2023-09-04 19:31:38,15.0883263,0.0001491,53.2176,280.1364,82.0612,278.0549,2.5835e-05,1.23e-06,0.0,0 STARLINK-4530,1 53393U 22097F   23247.81364127  .00000123  00000-0  25835-4 0  9996,2 53393  53.2176 280.1364 0001491  82.0612 278.0549 15.08832630 59608,6917.903,95.438,540.799,538.736,0.0
53393.0,STARLINK-4530,PAYLOAD,2023-09-05 01:53:11,15.08834733,0.0001436,53.2174,278.9473,85.0763,275.0393,4.1287e-05,3.69e-06,0.0,0 STARLINK-4530,1 53393U 22097F   23248.07860057  .00000369  00000-0  41287-4 0  9999,2 53393  53.2174 278.9473 0001436  85.0763 275.0393 15.08834733 60298,6917.896,95.438,540.755,538.768,0.0
53393.0,STARLINK-4530,PAYLOAD,2023-09-05 19:22:24,15.08844733,0.0001266,53.217,275.6765,91.5931,268.5206,6.1295e-05,6.88e-06,0.0,0 STARLINK-4530,1 53393U 22097F   23248.80723364  .00000688  00000-0  61295-4 0  9994,2 53393  53.2170 275.6765 0001266  91.5931 268.5206 15.08844733 59752,6917.866,95.437,540.607,538.855,0.0
53393.0,STARLINK-4530,PAYLOAD,2023-09-06 19:13:12,15.08837805,0.0001535,53.2165,271.2184,72.186,287.9299,0.0001264,1.724e-05,0.0,0 STARLINK-4530,1 53393U 22097F   23249.80083820  .00001724  00000-0  12640-3 0  9992,2 53393  53.2165 271.2184 0001535  72.1860 287.9299 15.08837805 60557,6917.887,95.438,540.814,538.69,0.0
53393.0,STARLINK-4530,PAYLOAD,2023-09-07 12:42:26,15.08842619,0.000159,53.2175,267.9442,87.0174,273.1,3.6568e-05,2.94e-06,0.0,0 STARLINK-4530,1 53393U 22097F   23250.52947597  .00000294  00000-0  36568-4 0  9990,2 53393  53.2175 267.9442 0001590  87.0174 273.1000 15.08842619 60669,6917.872,95.437,540.837,538.637,0.0
